STARLINK-36720          
1 67655U 26022H   26051.75587346  .00177461  00000+0  11634-2 0  9992
2 67655  97.2835  84.9046 0001476  93.9748 266.1686 15.75244197  2882
STARLINK-36688          
1 67656U 26022J   26051.75517764  .00182844  00000+0  12000-2 0  9999
2 67656  97.2838  84.9048 0001491  81.0939 279.0495 15.75202214  2880
STARLINK-36706          
1 67657U 26022K   26051.75375487  .00179478  00000+0  11761-2 0  9996
2 67657  97.2839  84.9057 0001459 104.2041 255.9386 15.75248127  2883
STARLINK-36701          
1 67658U 26022L   26051.75269698  .00150903  00000+0  99297-3 0  9996
2 67658  97.2837  84.9079 0001463  89.9823 270.1609 15.75232771  2883
STARLINK-36642          
1 67659U 26022M   26051.75163840  .00205093  00000+0  13395-2 0  9994
2 67659  97.2836  84.9100 0001438  89.7969 270.3461 15.75252419  2888
STARLINK-36673          
1 67660U 26022N   26051.81375497  .00222463  00000+0  14500-2 0  9995
2 67660  97.2839  84.9769 0001241  95.5065 264.6342 15.75251501  2894
STARLINK-36674          
1 67661U 26022P   26051.81234524  .00157745  00000+0  10374-2 0  9996
2 67661  97.2835  84.9797 0001362  83.5010 276.6410 15.75225895  2899
STARLINK-36700          
1 67662U 26022Q   26051.81022881  .00091339  00000+0  60645-3 0  9991
2 67662  97.2837  84.9823 0001295  87.7663 272.3751 15.75200152  2897
STARLINK-36675          
1 67663U 26022R   26051.81163603  .00145677  00000+0  95895-3 0  9990
2 67663  97.2839  84.9807 0001535  81.9619 278.1820 15.75238907  2896
STARLINK-36404          
1 67664U 26022S   26051.80846006  .00216151  00000+0  14090-2 0  9998
2 67664  97.2838  84.9837 0001398  81.8998 278.2426 15.75266811  2893
STARLINK-36399          
1 67665U 26022T   26051.80775350  .00110504  00000+0  73110-3 0  9996
2 67665  97.2839  84.9850 0001304 115.4060 244.7340 15.75224340  2895
STARLINK-36365          
1 67666U 26022U   26051.55223517  .00154974  00000+0  10204-2 0  9995
2 67666  97.2834  84.7207 0001707 107.0418 253.1035 15.75206836  2857
