CCSDS_OMM_VERS = 2.0
CREATION_DATE  = 
ORIGINATOR     = 

OBJECT_NAME    = STARLINK-36720
OBJECT_ID      = 2026-022H
CENTER_NAME    = EARTH
REF_FRAME      = TEME
TIME_SYSTEM    = UTC
MEAN_ELEMENT_THEORY = SGP/SGP4

EPOCH          = 2026-02-20T18:08:27.466944
MEAN_MOTION    = 15.75244197
ECCENTRICITY   = .0001476
INCLINATION    = 97.2835
RA_OF_ASC_NODE = 84.9046
ARG_OF_PERICENTER = 93.9748
MEAN_ANOMALY   = 266.1686

EPHEMERIS_TYPE = 0
CLASSIFICATION_TYPE = U
NORAD_CAT_ID   = 67655
ELEMENT_SET_NO = 999
REV_AT_EPOCH   = 288
BSTAR          = .11634E-2
MEAN_MOTION_DOT = .177461E-2
MEAN_MOTION_DDOT = 0

CCSDS_OMM_VERS = 2.0
CREATION_DATE  = 
ORIGINATOR     = 

OBJECT_NAME    = STARLINK-36688
OBJECT_ID      = 2026-022J
CENTER_NAME    = EARTH
REF_FRAME      = TEME
TIME_SYSTEM    = UTC
MEAN_ELEMENT_THEORY = SGP/SGP4

EPOCH          = 2026-02-20T18:07:27.348096
MEAN_MOTION    = 15.75202214
ECCENTRICITY   = .0001491
INCLINATION    = 97.2838
RA_OF_ASC_NODE = 84.9048
ARG_OF_PERICENTER = 81.0939
MEAN_ANOMALY   = 279.0495

EPHEMERIS_TYPE = 0
CLASSIFICATION_TYPE = U
NORAD_CAT_ID   = 67656
ELEMENT_SET_NO = 999
REV_AT_EPOCH   = 288
BSTAR          = .12E-2
MEAN_MOTION_DOT = .182844E-2
MEAN_MOTION_DDOT = 0

CCSDS_OMM_VERS = 2.0
CREATION_DATE  = 
ORIGINATOR     = 

OBJECT_NAME    = STARLINK-36706
OBJECT_ID      = 2026-022K
CENTER_NAME    = EARTH
REF_FRAME      = TEME
TIME_SYSTEM    = UTC
MEAN_ELEMENT_THEORY = SGP/SGP4

EPOCH          = 2026-02-20T18:05:24.420768
MEAN_MOTION    = 15.75248127
ECCENTRICITY   = .0001459
INCLINATION    = 97.2839
RA_OF_ASC_NODE = 84.9057
ARG_OF_PERICENTER = 104.2041
MEAN_ANOMALY   = 255.9386

EPHEMERIS_TYPE = 0
CLASSIFICATION_TYPE = U
NORAD_CAT_ID   = 67657
ELEMENT_SET_NO = 999
REV_AT_EPOCH   = 288
BSTAR          = .11761E-2
MEAN_MOTION_DOT = .179478E-2
MEAN_MOTION_DDOT = 0

CCSDS_OMM_VERS = 2.0
CREATION_DATE  = 
ORIGINATOR     = 

OBJECT_NAME    = STARLINK-36701
OBJECT_ID      = 2026-022L
CENTER_NAME    = EARTH
REF_FRAME      = TEME
TIME_SYSTEM    = UTC
MEAN_ELEMENT_THEORY = SGP/SGP4

EPOCH          = 2026-02-20T18:03:53.019072
MEAN_MOTION    = 15.75232771
ECCENTRICITY   = .0001463
INCLINATION    = 97.2837
RA_OF_ASC_NODE = 84.9079
ARG_OF_PERICENTER = 89.9823
MEAN_ANOMALY   = 270.1609

EPHEMERIS_TYPE = 0
CLASSIFICATION_TYPE = U
NORAD_CAT_ID   = 67658
ELEMENT_SET_NO = 999
REV_AT_EPOCH   = 288
BSTAR          = .99297E-3
MEAN_MOTION_DOT = .150903E-2
MEAN_MOTION_DDOT = 0

CCSDS_OMM_VERS = 2.0
CREATION_DATE  = 
ORIGINATOR     = 

OBJECT_NAME    = STARLINK-36642
OBJECT_ID      = 2026-022M
CENTER_NAME    = EARTH
REF_FRAME      = TEME
TIME_SYSTEM    = UTC
MEAN_ELEMENT_THEORY = SGP/SGP4

EPOCH          = 2026-02-20T18:02:21.557760
MEAN_MOTION    = 15.75252419
ECCENTRICITY   = .0001438
INCLINATION    = 97.2836
RA_OF_ASC_NODE = 84.9100
ARG_OF_PERICENTER = 89.7969
MEAN_ANOMALY   = 270.3461

EPHEMERIS_TYPE = 0
CLASSIFICATION_TYPE = U
NORAD_CAT_ID   = 67659
ELEMENT_SET_NO = 999
REV_AT_EPOCH   = 288
BSTAR          = .13395E-2
MEAN_MOTION_DOT = .205093E-2
MEAN_MOTION_DDOT = 0

CCSDS_OMM_VERS = 2.0
CREATION_DATE  = 
ORIGINATOR     = 

OBJECT_NAME    = STARLINK-36673
OBJECT_ID      = 2026-022N
CENTER_NAME    = EARTH
REF_FRAME      = TEME
TIME_SYSTEM    = UTC
MEAN_ELEMENT_THEORY = SGP/SGP4

EPOCH          = 2026-02-20T19:31:48.429408
MEAN_MOTION    = 15.75251501
ECCENTRICITY   = .0001241
INCLINATION    = 97.2839
RA_OF_ASC_NODE = 84.9769
ARG_OF_PERICENTER = 95.5065
MEAN_ANOMALY   = 264.6342

EPHEMERIS_TYPE = 0
CLASSIFICATION_TYPE = U
NORAD_CAT_ID   = 67660
ELEMENT_SET_NO = 999
REV_AT_EPOCH   = 289
BSTAR          = .145E-2
MEAN_MOTION_DOT = .222463E-2
MEAN_MOTION_DDOT = 0

CCSDS_OMM_VERS = 2.0
CREATION_DATE  = 
ORIGINATOR     = 

OBJECT_NAME    = STARLINK-36674
OBJECT_ID      = 2026-022P
CENTER_NAME    = EARTH
REF_FRAME      = TEME
TIME_SYSTEM    = UTC
MEAN_ELEMENT_THEORY = SGP/SGP4

EPOCH          = 2026-02-20T19:29:46.628736
MEAN_MOTION    = 15.75225895
ECCENTRICITY   = .0001362
INCLINATION    = 97.2835
RA_OF_ASC_NODE = 84.9797
ARG_OF_PERICENTER = 83.5010
MEAN_ANOMALY   = 276.6410

EPHEMERIS_TYPE = 0
CLASSIFICATION_TYPE = U
NORAD_CAT_ID   = 67661
ELEMENT_SET_NO = 999
REV_AT_EPOCH   = 289
BSTAR          = .10374E-2
MEAN_MOTION_DOT = .157745E-2
MEAN_MOTION_DDOT = 0

CCSDS_OMM_VERS = 2.0
CREATION_DATE  = 
ORIGINATOR     = 

OBJECT_NAME    = STARLINK-36700
OBJECT_ID      = 2026-022Q
CENTER_NAME    = EARTH
REF_FRAME      = TEME
TIME_SYSTEM    = UTC
MEAN_ELEMENT_THEORY = SGP/SGP4

EPOCH          = 2026-02-20T19:26:43.769184
MEAN_MOTION    = 15.75200152
ECCENTRICITY   = .0001295
INCLINATION    = 97.2837
RA_OF_ASC_NODE = 84.9823
ARG_OF_PERICENTER = 87.7663
MEAN_ANOMALY   = 272.3751

EPHEMERIS_TYPE = 0
CLASSIFICATION_TYPE = U
NORAD_CAT_ID   = 67662
ELEMENT_SET_NO = 999
REV_AT_EPOCH   = 289
BSTAR          = .60645E-3
MEAN_MOTION_DOT = .91339E-3
MEAN_MOTION_DDOT = 0

CCSDS_OMM_VERS = 2.0
CREATION_DATE  = 
ORIGINATOR     = 

OBJECT_NAME    = STARLINK-36675
OBJECT_ID      = 2026-022R
CENTER_NAME    = EARTH
REF_FRAME      = TEME
TIME_SYSTEM    = UTC
MEAN_ELEMENT_THEORY = SGP/SGP4

EPOCH          = 2026-02-20T19:28:45.352992
MEAN_MOTION    = 15.75238907
ECCENTRICITY   = .0001535
INCLINATION    = 97.2839
RA_OF_ASC_NODE = 84.9807
ARG_OF_PERICENTER = 81.9619
MEAN_ANOMALY   = 278.1820

EPHEMERIS_TYPE = 0
CLASSIFICATION_TYPE = U
NORAD_CAT_ID   = 67663
ELEMENT_SET_NO = 999
REV_AT_EPOCH   = 289
BSTAR          = .95895E-3
MEAN_MOTION_DOT = .145677E-2
MEAN_MOTION_DDOT = 0

CCSDS_OMM_VERS = 2.0
CREATION_DATE  = 
ORIGINATOR     = 

OBJECT_NAME    = STARLINK-36404
OBJECT_ID      = 2026-022S
CENTER_NAME    = EARTH
REF_FRAME      = TEME
TIME_SYSTEM    = UTC
MEAN_ELEMENT_THEORY = SGP/SGP4

EPOCH          = 2026-02-20T19:24:10.949184
MEAN_MOTION    = 15.75266811
ECCENTRICITY   = .0001398
INCLINATION    = 97.2838
RA_OF_ASC_NODE = 84.9837
ARG_OF_PERICENTER = 81.8998
MEAN_ANOMALY   = 278.2426

EPHEMERIS_TYPE = 0
CLASSIFICATION_TYPE = U
NORAD_CAT_ID   = 67664
ELEMENT_SET_NO = 999
REV_AT_EPOCH   = 289
BSTAR          = .1409E-2
MEAN_MOTION_DOT = .216151E-2
MEAN_MOTION_DDOT = 0

CCSDS_OMM_VERS = 2.0
CREATION_DATE  = 
ORIGINATOR     = 

OBJECT_NAME    = STARLINK-36399
OBJECT_ID      = 2026-022T
CENTER_NAME    = EARTH
REF_FRAME      = TEME
TIME_SYSTEM    = UTC
MEAN_ELEMENT_THEORY = SGP/SGP4

EPOCH          = 2026-02-20T19:23:09.902400
MEAN_MOTION    = 15.75224340
ECCENTRICITY   = .0001304
INCLINATION    = 97.2839
RA_OF_ASC_NODE = 84.9850
ARG_OF_PERICENTER = 115.4060
MEAN_ANOMALY   = 244.7340

EPHEMERIS_TYPE = 0
CLASSIFICATION_TYPE = U
NORAD_CAT_ID   = 67665
ELEMENT_SET_NO = 999
REV_AT_EPOCH   = 289
BSTAR          = .7311E-3
MEAN_MOTION_DOT = .110504E-2
MEAN_MOTION_DDOT = 0

CCSDS_OMM_VERS = 2.0
CREATION_DATE  = 
ORIGINATOR     = 

OBJECT_NAME    = STARLINK-36365
OBJECT_ID      = 2026-022U
CENTER_NAME    = EARTH
REF_FRAME      = TEME
TIME_SYSTEM    = UTC
MEAN_ELEMENT_THEORY = SGP/SGP4

EPOCH          = 2026-02-20T13:15:13.118688
MEAN_MOTION    = 15.75206836
ECCENTRICITY   = .0001707
INCLINATION    = 97.2834
RA_OF_ASC_NODE = 84.7207
ARG_OF_PERICENTER = 107.0418
MEAN_ANOMALY   = 253.1035

EPHEMERIS_TYPE = 0
CLASSIFICATION_TYPE = U
NORAD_CAT_ID   = 67666
ELEMENT_SET_NO = 999
REV_AT_EPOCH   = 285
BSTAR          = .10204E-2
MEAN_MOTION_DOT = .154974E-2
MEAN_MOTION_DDOT = 0

